HST                     
1 20580U 90037B   26191.48125161  .00004570  00000+0  14062-3 0  9992
2 20580  28.4733 281.3383 0001985  60.3837 299.6957 15.31028880792148
POLAR                   
1 23802U 96013A   26190.37387630  .00000218  00000+0  00000+0 0  9998
2 23802  79.8824 226.7888 6492765 208.3159  91.3168  1.29846086145140
SWAS                    
1 25560U 98071A   26191.40480925  .00001822  00000+0  11918-3 0  9999
2 25560  69.8941 167.6387 0008170 235.5968 124.4425 15.09729951500778
CXO                     
1 25867U 99040B   26193.17780626  .00000693  00000+0  00000+0 0  9994
2 25867  56.5436 115.9395 7801621 310.0685   0.3422  0.37804200 17418
XMM-NEWTON              
1 25989U 99066A   26193.28213418  .00000088  00000+0  00000+0 0  9997
2 25989  64.3559 282.6652 4668218  64.4827   0.1151  0.50124873 23131
TERRA                   
1 25994U 99068A   26191.85442301  .00000188  00000+0  47181-4 0  9998
2 25994  97.9443 240.4608 0003234 131.2978 317.0558 14.61121475413069
CLUSTER II-FM7 (SAMBA)  
1 26410U 00041A   26192.68021872  .00012833  00000+0  00000+0 0  9997
2 26410 149.8437  55.3938 9082311 272.8334 359.6328  0.44896530 20420
CLUSTER II-FM8 (TANGO)  
1 26464U 00045B   26190.94977411  .00011236  00000+0  00000+0 0  9992
2 26464 150.0622  56.2085 9086576 273.4793   2.2649  0.44423437 20413
ODIN                    
1 26702U 01007A   26191.07630392  .00284972  00000+0  10948-2 0  9999
2 26702  97.3780 233.6455 0005161 144.7958 215.3655 15.86650457393012
TIMED                   
1 26998U 01055B   26191.42456172  .00000719  00000+0  68807-4 0  9994
2 26998  74.0663 188.2284 0002144 305.4853  54.6131 14.95338576334296
CORIOLIS                
1 27640U 03001A   26190.53456389  .00000060  00000+0  48552-4 0  9997
2 27640  98.7131 197.0783 0014679 144.6326 215.5827 14.19950705217391
SORCE                   
1 27651U 03004A   26191.25065516  .00001905  00000+0  14655-3 0  9995
2 27651  39.9899 130.0780 0018386 221.1032 138.8377 15.03826851275376
MOST                    
1 27843U 03031D   26191.44218784  .00000034  00000+0  35497-4 0  9996
2 27843  98.7050 198.8438 0009788 178.6548 181.4657 14.21327111194017
SCISAT 1                
1 27858U 03036A   26190.78034802  .00000444  00000+0  61285-4 0  9999
2 27858  73.9302 126.4534 0007648 195.5821 164.5121 14.81474956234791
SWIFT                   
1 28485U 04047A   26191.76693950  .00051374  00000+0  38516-3 0  9991
2 28485  20.5533   2.6947 0001527 325.6509  34.3839 15.70792023190578
HINODE (SOLAR-B)        
1 29479U 06041A   26191.34998456  .00000417  00000+0  80025-4 0  9999
2 29479  98.0548 207.1611 0016646 210.3134 149.7110 14.68654496 58270
SHIJIAN-6 02A (SJ-6 02A)
1 29505U 06046A   26191.83647292  .00003181  00000+0  16351-3 0  9998
2 29505  97.6358 233.0822 0004607  73.1099 287.0639 15.17214232 75855
SHIJIAN-6 02B (SJ-6 02B)
1 29506U 06046B   26191.80563189  .00000601  00000+0  51181-4 0  9993
2 29506  97.7157 220.7181 0013947 351.1732   8.9245 15.01432077 74286
FGRST (GLAST)           
1 33053U 08029A   26191.79991920  .00002314  00000+0  79150-4 0  9993
2 33053  25.5830  40.5111 0007725 244.6747 115.2991 15.24060797999440
SDO                     
1 36395U 10005A   26190.29623794 -.00000089  00000+0  00000+0 0  9998
2 36395  34.6945  86.0076 0001880  60.2380 145.3020  1.00269380 60282
CRYOSAT 2               
1 36508U 10013A   26191.85896836  .00000118  00000+0  28533-4 0  9993
2 36508  92.0358 283.0564 0002330  98.1122 262.0350 14.51897323861512
X-SAT                   
1 37389U 11015C   26191.81447272  .00000022  00000+0  27063-4 0  9997
2 37389  98.3524 167.7135 0012707 274.9653  85.0077 14.25213085791045
GCOM-W1 (SHIZUKU)       
1 38337U 12025A   26191.32891300  .00000261  00000+0  68026-4 0  9993
2 38337  98.2025 131.5352 0001374  74.4932  78.1121 14.57087597752407
NUSTAR                  
1 38358U 12031A   26191.91668980 -.00002161  00000+0 -18480-3 0  9995
2 38358   6.0255 216.1324 0006541 103.6230 358.1321 15.09025308  1307
NEOSSAT                 
1 39089U 13009D   26191.48476076  .00000090  00000+0  45943-4 0  9990
2 39089  98.4187  10.9645 0011142 170.8387 189.3005 14.35834529700081
BRITE-AUSTRIA           
1 39091U 13009F   26190.98422785  .00000106  00000+0  50637-4 0  9999
2 39091  98.4005   9.8568 0010453 165.5592 194.5896 14.36551135700320
IRIS                    
1 39197U 13033A   26191.26253382  .00000687  00000+0  84780-4 0  9990
2 39197  97.9321  30.4669 0023087 242.0355 117.8524 14.85930789703801
HISAKI (SPRINT-A)       
1 39253U 13049A   26191.03333673  .00000085  00000+0  24902-4 0  9999
2 39253  29.7200 103.8555 0136939 202.0707 157.3924 13.55546435634522
CASSIOPE                
1 39265U 13055A   26191.76298473  .00025507 -53017-6  27356-3 0  9992
2 39265  80.9135  38.0430 0283963 342.9101  16.2710 15.27219864671266
STSAT-3                 
1 39422U 13066G   26191.81641817  .00001302  00000+0  10155-3 0  9991
2 39422  97.6196 161.3235 0008961 323.7554  36.3063 15.02872956687753
SWARM B                 
1 39451U 13067A   26191.56993447  .00002314  00000+0  81697-4 0  9999
2 39451  87.7453 335.2129 0002498  81.9796 278.1737 15.28698335686810
